NORAD_CAT_ID,OBJECT_NAME,OBJECT_TYPE,EPOCH,MEAN_MOTION,ECCENTRICITY,INCLINATION,RA_OF_ASC_NODE,ARG_OF_PERICENTER,MEAN_ANOMALY,BSTAR,MEAN_MOTION_DOT,MEAN_MOTION_DDOT,TLE_LINE0,TLE_LINE1,TLE_LINE2,SEMIMAJOR_AXIS,PERIOD,APOGEE,PERIGEE,DECAYED
49758.0,STARLINK-3194,PAYLOAD,2022-02-17 22:00:00,15.40504881,0.0002957,53.2176,314.6485,14.7805,72.2869,-0.001915,-0.00078476,0.0,0 STARLINK-3194,1 49758U 21115AL  22048.91667824 -.00078476  00000-0 -19150-2 0  9994,2 49758  53.2176 314.6485 0002957  14.7805  72.2869 15.40504881 13125,6822.755,93.476,446.638,442.603,0.0
49758.0,STARLINK-3194,PAYLOAD,2022-02-18 14:00:01,15.40398934,0.0002833999999999,53.217,311.5063,15.4129,170.847,0.00050427,0.00020347,0.0,0 STARLINK-3194,1 49758U 21115AL  22049.58334491  .00020347  00000-0  50427-3 0  9994,2 49758  53.2170 311.5063 0002834  15.4129 170.8470 15.40398934 13222,6823.068,93.482,446.867,442.999,0.0
49758.0,STARLINK-3194,PAYLOAD,2022-02-18 22:00:00,15.40412716,0.0002962,53.2172,309.9372,15.4302,220.3408,0.00034877,0.00013943,0.0,0 STARLINK-3194,1 49758U 21115AL  22049.91667824  .00013943  00000-0  34877-3 0  9995,2 49758  53.2172 309.9372 0002962  15.4302 220.3408 15.40412716  3634,6823.026999999999,93.481,446.913,442.871,0.0
49758.0,STARLINK-3194,PAYLOAD,2022-02-19 14:00:01,15.40466903,0.0002893,53.217,306.7947,16.9154,317.9975,0.0010101,0.00041371,0.0,0 STARLINK-3194,1 49758U 21115AL  22050.58334491  .00041371  00000-0  10101-2 0  9990,2 49758  53.2170 306.7947 0002893  16.9154 317.9975 15.40466903 13381,6822.8669999999975,93.478,446.706,442.758,0.0
49758.0,STARLINK-3194,PAYLOAD,2022-02-19 22:00:00,15.40498719,0.000305,53.2172,305.2255,17.7204,6.8031,-0.001074,-0.00044376,0.0,0 STARLINK-3194,1 49758U 21115AL  22050.91667824 -.00044376  00000-0 -10740-2 0  9995,2 49758  53.2172 305.2255 0003050  17.7204   6.8031 15.40498719  3623,6822.773,93.476,446.719,442.557,0.0
49758.0,STARLINK-3194,PAYLOAD,2022-02-20 06:00:00,15.40481795,0.0003161,53.217,303.6551,14.1424,59.9931,-0.00066237,-0.00027568,0.0,0 STARLINK-3194,1 49758U 21115AL  22051.25001157 -.00027568  00000-0 -66237-3 0  9991,2 49758  53.2170 303.6551 0003161  14.1424  59.9931 15.40481795 13489,6822.823,93.477,446.845,442.532,0.0
49758.0,STARLINK-3194,PAYLOAD,2022-02-20 14:00:01,15.40439527,0.0002968,53.2174,302.0826,16.4017,107.3435,0.00063349,0.00025718,0.0,0 STARLINK-3194,1 49758U 21115AL  22051.58334491  .00025718  00000-0  63349-3 0  9991,2 49758  53.2174 302.0826 0002968  16.4017 107.3435 15.40439527  3615,6822.948,93.48,446.838,442.788,0.0
49758.0,STARLINK-3194,PAYLOAD,2022-02-20 22:00:00,15.40444548,0.0003212,53.2174,300.5135,18.8355,154.4816,-0.00041668,-0.00017494,0.0,0 STARLINK-3194,1 49758U 21115AL  22051.91667824 -.00017494  00000-0 -41668-3 0  9991,2 49758  53.2174 300.5135 0003212  18.8355 154.4816 15.40444548  3610,6822.933000000001,93.48,446.99,442.607,0.0
49758.0,STARLINK-3194,PAYLOAD,2022-02-21 14:00:01,15.40408735,0.0003077,53.2174,297.3707,17.8455,254.6131,0.0010945,0.00044795,0.0,0 STARLINK-3194,1 49758U 21115AL  22052.58334491  .00044795  00000-0  10945-2 0  9991,2 49758  53.2174 297.3707 0003077  17.8455 254.6131 15.40408735 13686,6823.0390000000025,93.482,447.004,442.805,0.0
49758.0,STARLINK-3194,PAYLOAD,2022-02-21 22:00:00,15.40442311,0.0003291,53.2172,295.8019,17.9327,304.0723,0.00030818,0.00012283,0.0,0 STARLINK-3194,1 49758U 21115AL  22052.91667824  .00012283  00000-0  30818-3 0  9996,2 49758  53.2172 295.8019 0003291  17.9327 304.0723 15.40442311  3617,6822.94,93.48,447.05,442.56,0.0
49758.0,STARLINK-3194,PAYLOAD,2022-02-22 14:00:01,15.40487936,0.0003086,53.2169,292.6589,18.7589,42.492,0.00049049,0.00019838,0.0,0 STARLINK-3194,1 49758U 21115AL  22053.58334491  .00019838  00000-0  49049-3 0  9990,2 49758  53.2169 292.6589 0003086  18.7589  42.4920 15.40487936  3637,6822.805,93.477,446.776,442.565,0.0
49758.0,STARLINK-3194,PAYLOAD,2022-02-22 22:00:00,15.40501858,0.0003245,53.2168,291.09,16.2745,94.6194,-0.00091658,-0.00037967,0.0,0 STARLINK-3194,1 49758U 21115AL  22053.91667824 -.00037967  00000-0 -91658-3 0  9994,2 49758  53.2168 291.0900 0003245  16.2745  94.6194 15.40501858 13891,6822.764,93.476,446.843,442.415,0.0
49758.0,STARLINK-3194,PAYLOAD,2022-02-23 14:00:01,15.40443234,0.0002987,53.2164,287.947,14.3549,195.7444,-5.8994e-05,-2.828e-05,0.0,0 STARLINK-3194,1 49758U 21115AL  22054.58334491 -.00002828  00000-0 -58994-4 0  9994,2 49758  53.2164 287.9470 0002987  14.3549 195.7444 15.40443234  3642,6822.937,93.48,446.84,442.764,0.0
49758.0,STARLINK-3194,PAYLOAD,2022-02-23 22:00:00,15.40422149,0.0003244,53.2166,286.3784,14.2567,245.4056,-0.00047645,-0.00019924,0.0,0 STARLINK-3194,1 49758U 21115AL  22054.91667824 -.00019924  00000-0 -47645-3 0  9995,2 49758  53.2166 286.3784 0003244  14.2567 245.4056 15.40422149  3645,6822.999,93.481,447.078,442.651,0.0
49758.0,STARLINK-3194,PAYLOAD,2022-02-24 06:00:00,15.40435735,0.0003228,53.2163,284.8074,12.9526,296.2399,-0.00015607,-6.812e-05,0.0,0 STARLINK-3194,1 49758U 21115AL  22055.25001157 -.00006812  00000-0 -15607-3 0  9999,2 49758  53.2163 284.8074 0003228  12.9526 296.2399 15.40435735 14101,6822.959,93.48,447.027,442.622,0.0
49758.0,STARLINK-3194,PAYLOAD,2022-02-24 14:00:01,15.40427746,0.0003024,53.2165,283.2355,15.2537,343.5016,0.0016479,0.00067898,0.0,0 STARLINK-3194,1 49758U 21115AL  22055.58334491  .00067898  00000-0  16479-2 0  9991,2 49758  53.2165 283.2355 0003024  15.2537 343.5016 15.40427746  3642,6822.983,93.481,446.911,442.785,0.0
49758.0,STARLINK-3194,PAYLOAD,2022-02-24 22:00:00,15.40486447,0.0003259,53.2168,281.6668,13.7718,34.6273,-0.00074851,-0.00031091,0.0,0 STARLINK-3194,1 49758U 21115AL  22055.91667824 -.00031091  00000-0 -74851-3 0  9994,2 49758  53.2168 281.6668 0003259  13.7718  34.6273 15.40486447  3633,6822.81,93.477,446.898,442.451,0.0
49758.0,STARLINK-3194,PAYLOAD,2022-02-25 06:00:00,15.40477377,0.0003246,53.2167,280.0957,11.8212,86.1672,-0.0014272,-0.00058688,0.0,0 STARLINK-3194,1 49758U 21115AL  22056.25001157 -.00058688  00000-0 -14272-2 0  9994,2 49758  53.2167 280.0957 0003246  11.8212  86.1672 15.40477377 14257,6822.8359999999975,93.478,446.916,442.487,0.0
49758.0,STARLINK-3194,PAYLOAD,2022-02-25 14:00:01,15.40443809,0.0003083,53.2171,278.5239,14.2705,133.2993,-2.3622e-05,-1.375e-05,0.0,0 STARLINK-3194,1 49758U 21115AL  22056.58334491 -.00001375  00000-0 -23622-4 0  9992,2 49758  53.2171 278.5239 0003083  14.2705 133.2993 15.40443809  3633,6822.936,93.48,446.904,442.697,0.0
49758.0,STARLINK-3194,PAYLOAD,2022-02-25 22:00:00,15.40430774,0.0003401,53.2171,276.9553,15.0605,182.0865,0.00057222,0.00023178,0.0,0 STARLINK-3194,1 49758U 21115AL  22056.91667824  .00023178  00000-0  57222-3 0  9993,2 49758  53.2171 276.9553 0003401  15.0605 182.0865 15.40430774 14354,6822.974,93.48,447.16,442.519,0.0
49758.0,STARLINK-3194,PAYLOAD,2022-02-26 14:00:01,15.40474552,0.0003229,53.2174,273.8124,16.5369,279.7531,2.1357e-05,4.74e-06,0.0,0 STARLINK-3194,1 49758U 21115AL  22057.58334491  .00000474  00000-0  21357-4 0  9993,2 49758  53.2174 273.8124 0003229  16.5369 279.7531 15.40474552  3644,6822.845,93.478,446.913,442.507,0.0
49758.0,STARLINK-3194,PAYLOAD,2022-02-26 22:00:00,15.40458822,0.0003515,53.2173,272.244,15.1612,330.7334,-0.00026358,-0.00011229,0.0,0 STARLINK-3194,1 49758U 21115AL  22057.91667824 -.00011229  00000-0 -26358-3 0  9996,2 49758  53.2173 272.2440 0003515  15.1612 330.7334 15.40458822  3653,6822.891,93.479,447.154,442.358,0.0
49758.0,STARLINK-3194,PAYLOAD,2022-02-27 06:00:00,15.40459345,0.0003455,53.217,270.6725,13.6734,21.7997,-0.00063034,-0.00026241,0.0,0 STARLINK-3194,1 49758U 21115AL  22058.25001157 -.00026241  00000-0 -63034-3 0  9997,2 49758  53.2170 270.6725 0003455  13.6734  21.7997 15.40459345 14564,6822.89,93.479,447.112,442.397,0.0
49758.0,STARLINK-3194,PAYLOAD,2022-02-27 14:00:01,15.40450476,0.0003345,53.217,269.1011,16.1692,68.8779,0.00078815,0.00032136,0.0,0 STARLINK-3194,1 49758U 21115AL  22058.58334491  .00032136  00000-0  78815-3 0  9994,2 49758  53.2170 269.1011 0003345  16.1692  68.8779 15.40450476  3647,6822.916,93.479,447.06300000000016,442.499,0.0
49758.0,STARLINK-3194,PAYLOAD,2022-02-27 22:00:00,15.40460414,0.0003625,53.2167,267.5326,15.4868,119.1553,0.00062523,0.00025396,0.0,0 STARLINK-3194,1 49758U 21115AL  22058.91667824  .00025396  00000-0  62523-3 0  9999,2 49758  53.2167 267.5326 0003625  15.4868 119.1553 15.40460414 14669,6822.886,93.479,447.225,442.278,0.0
49758.0,STARLINK-3194,PAYLOAD,2022-02-28 14:00:01,15.40484136,0.0003354,53.2161,264.3897,15.1385,218.7272,-0.00038502,-0.00016219,0.0,0 STARLINK-3194,1 49758U 21115AL  22059.58334491 -.00016219  00000-0 -38502-3 0  9990,2 49758  53.2161 264.3897 0003354  15.1385 218.7272 15.40484136  3648,6822.816,93.477,446.97,442.393,0.0
49758.0,STARLINK-3194,PAYLOAD,2022-02-28 22:00:00,15.40461871,0.0003642,53.2159,262.8211,13.7511,269.7238,0.00023355,9.213e-05,0.0,0 STARLINK-3194,1 49758U 21115AL  22059.91667824  .00009213  00000-0  23355-3 0  9990,2 49758  53.2159 262.8211 0003642  13.7511 269.7238 15.40461871 14824,6822.882,93.478,447.232,442.262,0.0
49758.0,STARLINK-3194,PAYLOAD,2022-03-01 14:00:01,15.40476054,0.0003398,53.2155,259.6781,15.4728,7.1834,-0.0004973,-0.00020813,0.0,0 STARLINK-3194,1 49758U 21115AL  22060.58334491 -.00020813  00000-0 -49730-3 0  9992,2 49758  53.2155 259.6781 0003398  15.4728   7.1834 15.40476054  3646,6822.84,93.478,447.024,442.387,0.0
49758.0,STARLINK-3194,PAYLOAD,2022-03-01 22:00:01,15.40436933,0.0003681,53.2155,258.1092,15.7374,56.5782,0.00096659,0.00039525,0.0,0 STARLINK-3194,1 49758U 21115AL  22060.91668981  .00039525  00000-0  96659-3 0  9993,2 49758  53.2155 258.1092 0003681  15.7374  56.5782 15.40436933 14970,6822.956,93.48,447.332,442.309,0.0
49758.0,STARLINK-3194,PAYLOAD,2022-03-02 14:00:01,15.40502664,0.0003523,53.2164,254.9602,17.9129,153.4879,-0.0019136,-0.00078421,0.0,0 STARLINK-3194,1 49758U 21115AL  22061.58334491 -.00078421  00000-0 -19136-2 0  9997,2 49758  53.2164 254.9602 0003523  17.9129 153.4879 15.40502664 15079,6822.762,93.476,447.03,442.223,0.0
